STARLINK-1063           
1 44768U 19074BH  26068.75225384 -.00812325  00000+0 -29858-1 0  9993
2 44768  53.1603 219.1040 0001219  60.1573 299.9548 15.29959368348324
SPHINX/FRAZIER          
1 63232U 25052Y   26068.68371868  .00008199  00000+0  35502-3 0  9993
2 63232  97.4068 323.0895 0007242 127.8815 232.3077 15.22644280 54725
